[{"OBJECT_NAME":"OBJECT C","OBJECT_ID":"2025-313C","EPOCH":"2026-03-09T21:13:39.359712","MEAN_MOTION":14.86307196,"ECCENTRICITY":0.01562422,"INCLINATION":97.6236,"RA_OF_ASC_NODE":143.4861,"ARG_OF_PERICENTER":305.4656,"MEAN_ANOMALY":53.2062,"EPHEMERIS_TYPE":0,"CLASSIFICATION_TYPE":"U","NORAD_CAT_ID":67250,"ELEMENT_SET_NO":999,"REV_AT_EPOCH":1059,"BSTAR":0.0010268788,"MEAN_MOTION_DOT":0.00011246,"MEAN_MOTION_DDOT":0},{"OBJECT_NAME":"FENGYUN 1C DEB","OBJECT_ID":"1999-025ASD","EPOCH":"2026-03-09T04:33:50.443488","MEAN_MOTION":14.62820936,"ECCENTRICITY":0.00102518,"INCLINATION":98.8888,"RA_OF_ASC_NODE":221.2855,"ARG_OF_PERICENTER":270.1098,"MEAN_ANOMALY":89.8927,"EPHEMERIS_TYPE":0,"CLASSIFICATION_TYPE":"U","NORAD_CAT_ID":30719,"ELEMENT_SET_NO":999,"REV_AT_EPOCH":98711,"BSTAR":0.0037659338,"MEAN_MOTION_DOT":0.00019239,"MEAN_MOTION_DDOT":0}]
